SHIYAN-1 (SY-1)         
1 28220U 04012A   26068.73650539  .00016393  00000+0  54854-3 0  9991
2 28220  97.8764 140.5238 0005873  23.6952 336.4557 15.31043463195862
STARLINK-31677          
1 59749U 24090V   26068.40600894 -.00000535  00000+0 -99111-5 0  9992
2 59749  43.0056 185.3642 0000871 253.7432 106.3324 15.27575537103386
